NORAD_CAT_ID,OBJECT_NAME,OBJECT_TYPE,EPOCH,MEAN_MOTION,ECCENTRICITY,INCLINATION,RA_OF_ASC_NODE,ARG_OF_PERICENTER,MEAN_ANOMALY,BSTAR,MEAN_MOTION_DOT,MEAN_MOTION_DDOT,TLE_LINE0,TLE_LINE1,TLE_LINE2,SEMIMAJOR_AXIS,PERIOD,APOGEE,PERIGEE,DECAYED
56798.0,STARLINK-6068,PAYLOAD,2024-04-29 14:24:51,14.98342318,0.0002899,70.0002,236.6329,268.8455,91.2372,-0.00012343,-1.566e-05,0.0,0 STARLINK-6068,1 56798U 23078AH  24120.60059733 -.00001566  00000-0 -12343-3 0  9993,2 56798  70.0002 236.6329 0002899 268.8455  91.2372 14.98342318 52120,6950.155,96.106,574.035,570.005,0.0
56798.0,STARLINK-6068,PAYLOAD,2024-04-29 17:37:07,14.98342272,0.0002907,70.0003,236.2963,269.0913,90.9913,-0.00011134,-1.422e-05,0.0,0 STARLINK-6068,1 56798U 23078AH  24120.73411632 -.00001422  00000-0 -11134-3 0  9995,2 56798  70.0003 236.2963 0002907 269.0913  90.9913 14.98342272 52141,6950.155,96.106,574.04,570.0,0.0
56798.0,STARLINK-6068,PAYLOAD,2024-04-30 14:26:52,14.98328898,0.0002884,70.0002,234.1084,269.7006,90.3823,0.00024324,2.81e-05,0.0,0 STARLINK-6068,1 56798U 23078AH  24121.60199425  .00002810  00000-0  24324-3 0  9990,2 56798  70.0002 234.1084 0002884 269.7006  90.3823 14.98328898 52271,6950.196,96.107,574.066,570.057,0.0
56798.0,STARLINK-6068,PAYLOAD,2024-04-30 17:39:08,14.9832943,0.0002917,70.0003,233.7719,269.8007,90.2818,0.00023375,2.697e-05,0.0,0 STARLINK-6068,1 56798U 23078AH  24121.73551422  .00002697  00000-0  23375-3 0  9991,2 56798  70.0003 233.7719 0002917 269.8007  90.2818 14.98329430 51883,6950.195,96.107,574.087,570.032,0.0
56798.0,STARLINK-6068,PAYLOAD,2024-05-01 17:41:09,14.98334508,0.0002909,70.0004,231.2473,270.1936,89.889,-2.4356e-05,-3.84e-06,0.0,0 STARLINK-6068,1 56798U 23078AH  24122.73691587 -.00000384  00000-0 -24356-4 0  9993,2 56798  70.0004 231.2473 0002909 270.1936  89.8890 14.98334508 52035,6950.179,96.107,574.066,570.022,0.0
56798.0,STARLINK-6068,PAYLOAD,2024-05-02 12:54:46,14.98309588,0.0003036,70.0004,229.2285,267.1163,92.9648,0.00028595,3.319e-05,0.0,0 STARLINK-6068,1 56798U 23078AH  24123.53804302  .00003319  00000-0  28595-3 0  9990,2 56798  70.0004 229.2285 0003036 267.1163  92.9648 14.98309588 52152,6950.256,96.108,574.231,570.011,0.0
56798.0,STARLINK-6068,PAYLOAD,2024-05-02 14:30:54,14.98331017,0.0002936,70.0003,229.0602,265.7666,94.3157,-0.0001055,-1.352e-05,0.0,0 STARLINK-6068,1 56798U 23078AH  24123.60479809 -.00001352  00000-0 -10550-3 0  9997,2 56798  70.0003 229.0602 0002936 265.7666  94.3157 14.98331017 52571,6950.19,96.107,574.095,570.014,0.0
56798.0,STARLINK-6068,PAYLOAD,2024-05-02 16:07:02,14.98332235,0.0002889,70.0001,228.8911,266.2042,93.8786,-8.6692e-05,-1.127e-05,0.0,0 STARLINK-6068,1 56798U 23078AH  24123.67155672 -.00001127  00000-0 -86692-4 0  9994,2 56798  70.0001 228.8911 0002889 266.2042  93.8786 14.98332235 52171,6950.186,96.107,574.059,570.043,0.0
56798.0,STARLINK-6068,PAYLOAD,2024-05-03 00:07:42,14.98339362,0.0002983,69.9999,228.0498,267.1816,92.9002,-5.1667e-05,-7.1e-06,0.0,0 STARLINK-6068,1 56798U 23078AH  24124.00534982 -.00000710  00000-0 -51667-4 0  9998,2 56798  69.9999 228.0498 0002983 267.1816  92.9002 14.98339362 52225,6950.164,96.106,574.102,569.956,0.0
56798.0,STARLINK-6068,PAYLOAD,2024-05-03 14:32:53,14.98340119,0.0002994,70.0,226.5348,266.5648,93.5169,0.00013439,1.511e-05,0.0,0 STARLINK-6068,1 56798U 23078AH  24124.60618013  .00001511  00000-0  13439-3 0  9994,2 56798  70.0000 226.5348 0002994 266.5648  93.5169 14.98340119 52724,6950.162,96.106,574.107,569.946,0.0
56798.0,STARLINK-6068,PAYLOAD,2024-05-03 16:09:01,14.98341623,0.0002981,70.0001,226.3665,266.6541,93.4277,0.0001485,1.68e-05,0.0,0 STARLINK-6068,1 56798U 23078AH  24124.67293838  .00001680  00000-0  14850-3 0  9990,2 56798  70.0001 226.3665 0002981 266.6541  93.4277 14.98341623 52320,6950.157,96.106,574.094,569.95,0.0
56798.0,STARLINK-6068,PAYLOAD,2024-05-04 12:58:48,14.98318115,0.0003177,69.9996,224.1778,270.2897,89.7898,-0.00010852,-1.387e-05,0.0,0 STARLINK-6068,1 56798U 23078AH  24125.54084195 -.00001387  00000-0 -10852-3 0  9995,2 56798  69.9996 224.1778 0003177 270.2897  89.7898 14.98318115 52455,6950.23,96.108,574.303,569.887,0.0
56798.0,STARLINK-6068,PAYLOAD,2024-05-05 05:00:09,14.98326986,0.0003098,69.9999,222.4953,270.6094,89.471,-0.00014228,-1.79e-05,0.0,0 STARLINK-6068,1 56798U 23078AH  24126.20844040 -.00001790  00000-0 -14228-3 0  9991,2 56798  69.9999 222.4953 0003098 270.6094  89.4710 14.98326986 52555,6950.202,96.107,574.22,569.914,0.0
56798.0,STARLINK-6068,PAYLOAD,2024-05-05 14:36:57,14.98333857,0.0003028,69.9998,221.4848,269.4014,90.6798,-5.6461e-05,-7.67e-06,0.0,0 STARLINK-6068,1 56798U 23078AH  24126.60899385 -.00000767  00000-0 -56461-4 0  9996,2 56798  69.9998 221.4848 0003028 269.4014  90.6798 14.98333857 53025,6950.181,96.107,574.15,569.941,0.0
56798.0,STARLINK-6068,PAYLOAD,2024-05-05 16:13:04,14.98336854,0.0003095,69.9998,221.3167,270.6554,89.425,-5.7547e-05,-7.8e-06,0.0,0 STARLINK-6068,1 56798U 23078AH  24126.67575165 -.00000780  00000-0 -57547-4 0  9991,2 56798  69.9998 221.3167 0003095 270.6554  89.4250 14.98336854 52629,6950.172,96.107,574.188,569.886,0.0
56798.0,STARLINK-6068,PAYLOAD,2024-05-06 14:38:56,14.98337002,0.0002968,69.9999,218.96,271.4827,88.5992,0.00026926,3.122e-05,0.0,0 STARLINK-6068,1 56798U 23078AH  24127.61038147  .00003122  00000-0  26926-3 0  9997,2 56798  69.9999 218.9600 0002968 271.4827  88.5992 14.98337002 53174,6950.171,96.107,574.099,569.973,0.0
56798.0,STARLINK-6068,PAYLOAD,2024-05-06 16:15:04,14.98338754,0.0002968,69.9999,218.7917,271.5344,88.5475,0.00028234,3.278e-05,0.0,0 STARLINK-6068,1 56798U 23078AH  24127.67713969  .00003278  00000-0  28234-3 0  9991,2 56798  69.9999 218.7917 0002968 271.5344  88.5475 14.98338754 52774,6950.166,96.106,574.094,569.968,0.0
56798.0,STARLINK-6068,PAYLOAD,2024-05-07 05:04:10,14.98334206,0.000249,70.0014,217.4456,277.1145,82.9731,5.7855e-07,-8.6e-07,0.0,0 STARLINK-6068,1 56798U 23078AH  24128.21123111 -.00000086  00000-0  57855-6 0  9995,2 56798  70.0014 217.4456 0002490 277.1145  82.9731 14.98334206 52850,6950.18,96.107,573.775,570.314,0.0
56798.0,STARLINK-6068,PAYLOAD,2024-05-07 14:40:59,14.98326902,0.0002357,70.0015,216.4367,261.0218,99.0675,-3.159e-05,-4.7e-06,0.0,0 STARLINK-6068,1 56798U 23078AH  24128.61179492 -.00000470  00000-0 -31590-4 0  9996,2 56798  70.0015 216.4367 0002357 261.0218  99.0675 14.98326902 53329,6950.202,96.107,573.706,570.429,0.0
56798.0,STARLINK-6068,PAYLOAD,2024-05-07 16:17:06,14.98331865,0.0002838,70.0002,216.2671,271.547,88.5364,-2.8877e-06,-1.27e-06,0.0,0 STARLINK-6068,1 56798U 23078AH  24128.67855067 -.00000127  00000-0 -28877-5 0  9995,2 56798  70.0002 216.2671 0002838 271.5470  88.5364 14.98331865 53334,6950.187,96.107,574.025,570.08,0.0
56798.0,STARLINK-6068,PAYLOAD,2024-05-08 13:06:51,14.9833634,0.0002319,70.0007,214.0797,254.8207,105.2696,-0.00023827,-2.935e-05,0.0,0 STARLINK-6068,1 56798U 23078AH  24129.54643336 -.00002935  00000-0 -23827-3 0  9993,2 56798  70.0007 214.0797 0002319 254.8207 105.2696 14.98336340 53057,6950.173,96.107,573.65,570.427,0.0
56798.0,STARLINK-6068,PAYLOAD,2024-05-08 14:42:59,14.98342249,0.0002336,70.0007,213.9117,256.2338,103.8561,-0.00031314,-3.828e-05,0.0,0 STARLINK-6068,1 56798U 23078AH  24129.61319131 -.00003828  00000-0 -31314-3 0  9996,2 56798  70.0007 213.9117 0002336 256.2338 103.8561 14.98342249 53477,6950.155,96.106,573.644,570.396,0.0
56798.0,STARLINK-6068,PAYLOAD,2024-05-09 14:45:00,14.98332415,0.000292,70.0003,211.3863,265.7723,94.3102,0.00010219,1.127e-05,0.0,0 STARLINK-6068,1 56798U 23078AH  24130.61458432  .00001127  00000-0  10219-3 0  9995,2 56798  70.0003 211.3863 0002920 265.7723  94.3102 14.98332415 53621,6950.185,96.107,574.08,570.021,0.0
56798.0,STARLINK-6068,PAYLOAD,2024-05-10 14:47:01,14.98330347,0.0002897,70.0005,208.8614,268.6978,91.385,4.7193e-05,4.7e-06,0.0,0 STARLINK-6068,1 56798U 23078AH  24131.61598648  .00000470  00000-0  47193-4 0  9992,2 56798  70.0005 208.8614 0002897 268.6978  91.3850 14.98330347 53770,6950.192,96.107,574.07,570.043,0.0
56798.0,STARLINK-6068,PAYLOAD,2024-05-11 05:12:12,14.98341422,0.0003073,70.0001,207.3458,269.2623,90.8184,0.00011583,1.29e-05,0.0,0 STARLINK-6068,1 56798U 23078AH  24132.21681418  .00001290  00000-0  11583-3 0  9991,2 56798  70.0001 207.3458 0003073 269.2623  90.8184 14.98341422 53452,6950.158,96.106,574.158,569.887,0.0
56798.0,STARLINK-6068,PAYLOAD,2024-05-11 11:36:41,14.9838178,0.0003236,69.9998,206.6737,269.866,90.2128,0.00044778,5.261e-05,0.0,0 STARLINK-6068,1 56798U 23078AH  24132.48381610  .00005261  00000-0  44778-3 0  9995,2 56798  69.9998 206.6737 0003236 269.8660  90.2128 14.98381780 53491,6950.033,96.104,574.147,569.649,0.0
56798.0,STARLINK-6068,PAYLOAD,2024-05-11 14:48:57,14.98384491,0.0002765,70.0012,206.3373,265.9166,94.1677,0.00056355,6.647e-05,0.0,0 STARLINK-6068,1 56798U 23078AH  24132.61732658  .00006647  00000-0  56355-3 0  9995,2 56798  70.0012 206.3373 0002765 265.9166  94.1677 14.98384491 53515,6950.024,96.104,573.811,569.968,0.0
56798.0,STARLINK-6068,PAYLOAD,2024-05-12 05:14:18,14.98281546,0.0003064,70.0,204.8218,265.796,94.2848,-0.00062513,-7.535e-05,0.0,0 STARLINK-6068,1 56798U 23078AH  24133.21826503 -.00007535  00000-0 -62513-3 0  9997,2 56798  70.0000 204.8218 0003064 265.7960  94.2848 14.98281546 53604,6950.343,96.11,574.337,570.078,0.0
56798.0,STARLINK-6068,PAYLOAD,2024-05-12 13:14:59,14.98277888,0.0002964,70.0001,203.9795,259.7201,100.3624,-0.00051677,-6.245e-05,0.0,0 STARLINK-6068,1 56798U 23078AH  24133.55207377 -.00006245  00000-0 -51677-3 0  9992,2 56798  70.0001 203.9795 0002964 259.7201 100.3624 14.98277888 54060,6950.354,96.11,574.279,570.159,0.0
56798.0,STARLINK-6068,PAYLOAD,2024-05-12 14:51:07,14.98281515,0.0002983,70.0,203.8114,263.8237,96.2582,-0.00057255,-6.909e-05,0.0,0 STARLINK-6068,1 56798U 23078AH  24133.61883409 -.00006909  00000-0 -57255-3 0  9990,2 56798  70.0000 203.8114 0002983 263.8237  96.2582 14.98281515 54078,6950.343,96.11,574.281,570.135,0.0
